GLOBALSTAR M045         
1 25676U 99019A   24180.40098215 -.00000077  00000+0  14543-3 0  9992
2 25676  51.9951 233.6185 0000612 217.1609 156.3634 12.27040269149961
GLOBALSTAR M019         
1 25677U 99019B   24180.60585767 -.00000063  00000+0  28186-3 0  9991
2 25677  51.9893 338.5216 0000601  22.5164  56.2536 12.13856469142200
GLOBALSTAR M044         
1 25678U 99019C   24180.56695258 -.00000059  00000+0  34616-3 0  9994
2 25678  51.9956 245.7534 0006385  81.0779  65.7389 11.90234294129217
GLOBALSTAR M042         
1 25679U 99019D   24180.57074211 -.00000034  00000+0  54791-3 0  9995
2 25679  52.0037 329.2069 0002103 288.8382 149.1042 12.22063712142097
GLOBALSTAR M025         
1 25770U 99031A   24180.53889701 -.00000065  00000+0  80663-4 0  9997
2 25770  51.9810 258.5218 0001436 256.5596 206.5349 11.22550848441992
GLOBALSTAR M049         
1 25771U 99031B   24180.57326294 -.00000137  00000+0 -24968-2 0  9990
2 25771  51.9879 275.4339 0003280 145.2024 214.8987 11.12107400 78086
GLOBALSTAR M047         
1 25772U 99031C   24180.56466083 -.00000049  00000+0  55963-3 0  9992
2 25772  51.9855 306.2067 0016032  17.8064 342.3301 11.31920823431060
GLOBALSTAR M052         
1 25773U 99031D   24180.33825223 -.00000014  00000+0  17410-2 0  9999
2 25773  51.9891  29.6166 0002196 322.7639 207.7882 11.15051663439031
